{
    "links": {
        "self": "http://www.neowsapp.com/rest/v1/neo/3825035?api_key=iIulBulltgU6a56xZRHN4H3l9WmuAYTsLGpBGhQ2"
    },
    "id": "3825035",
    "neo_reference_id": "3825035",
    "name": "(2018 KV2)",
    "designation": "2018 KV2",
    "nasa_jpl_url": "http://ssd.jpl.nasa.gov/sbdb.cgi?sstr=3825035",
    "absolute_magnitude_h": 25.1,
    "estimated_diameter": {
        "kilometers": {
            "estimated_diameter_min": 0.0253837029,
            "estimated_diameter_max": 0.0567596853
        },
        "meters": {
            "estimated_diameter_min": 25.3837029364,
            "estimated_diameter_max": 56.7596852866
        },
        "miles": {
            "estimated_diameter_min": 0.0157726969,
            "estimated_diameter_max": 0.0352688224
        },
        "feet": {
            "estimated_diameter_min": 83.279867942,
            "estimated_diameter_max": 186.2194458756
        }
    },
    "is_potentially_hazardous_asteroid": false,
    "close_approach_data": [
        {
            "close_approach_date": "2018-05-21",
            "close_approach_date_full": "2018-May-21 07:11",
            "epoch_date_close_approach": 1526886660000,
            "relative_velocity": {
                "kilometers_per_second": "6.7724258848",
                "kilometers_per_hour": "24380.7331851959",
                "miles_per_hour": "15149.2394616569"
            },
            "miss_distance": {
                "astronomical": "0.0759721031",
                "lunar": "29.5531481059",
                "kilometers": "11365264.803180397",
                "miles": "7062048.0771755986"
            },
            "orbiting_body": "Earth"
        }
    ],
    "orbital_data": {
        "orbit_id": "1",
        "orbit_determination_date": "2018-05-26 07:42:03",
        "first_observation_date": "2018-05-23",
        "last_observation_date": "2018-05-25",
        "data_arc_in_days": 2,
        "observations_used": 11,
        "orbit_uncertainty": "8",
        "minimum_orbit_intersection": ".0715462",
        "jupiter_tisserand_invariant": "4.793",
        "epoch_osculation": "2458262.5",
        "eccentricity": ".2286196376191224",
        "semi_major_axis": "1.365544774583032",
        "inclination": "10.04769332076196",
        "ascending_node_longitude": "229.9895614223143",
        "orbital_period": "582.8507289056326",
        "perihelion_distance": "1.053354423065173",
        "perihelion_argument": "37.7987158959583",
        "aphelion_distance": "1.677735126100891",
        "perihelion_time": "2458286.165694870770",
        "mean_anomaly": "345.3827923154977",
        "mean_motion": ".6176538556895008",
        "equinox": "J2000",
        "orbit_class": {
            "orbit_class_type": "AMO",
            "orbit_class_description": "Near-Earth asteroid orbits similar to that of 1221 Amor",
            "orbit_class_range": "1.017 AU < q (perihelion) < 1.3 AU"
        }
    },
    "is_sentry_object": false
}